1 41188U 15081K   19273.24783760 -.00000012 +00000-0 +35485-4 0  9999
2 41188 047.0004 202.4897 0001405 153.3073 206.7883 14.54858756202857
1 41188U 15081K   19274.14061755 -.00000002  00000-0  37679-4 0  9998
2 41188  47.0005 198.2953 0001456 157.9763 202.1184 14.54859044202984
1 41188U 15081K   19274.82737119 +.00000004 +00000-0 +39122-4 0  9993
2 41188 047.0005 195.0688 0001495 161.4761 198.6178 14.54859300203084
1 41188U 15081K   19275.23942336  .00000009  00000-0  40322-4 0  9997
2 41188  47.0005 193.1330 0001522 163.1613 196.9321 14.54859456203143
1 41188U 15081K   19275.78882612 +.00000010 +00000-0 +40508-4 0  9995
2 41188 047.0006 190.5518 0001552 165.9707 194.1220 14.54859644203226
1 41188U 15081K   19276.88763134 +.00000014 +00000-0 +41500-4 0  9991
2 41188 047.0006 185.3896 0001622 170.9447 189.1467 14.54860084203386
1 41188U 15081K   19277.16233266  .00000013  00000-0  41169-4 0  9991
2 41188  47.0006 184.0991 0001640 171.9786 188.1124 14.54860170203425
1 41188U 15081K   19277.84908571 +.00000007 +00000-0 +39830-4 0  9999
2 41188 047.0006 180.8727 0001688 174.9694 185.1207 14.54860417203523
1 41188U 15081K   19278.19246225  .00000006  00000-0  39516-4 0  9999
2 41188  47.0006 179.2596 0001703 176.3845 183.7052 14.54860532203576
1 41188U 15081K   19278.87921515 -.00000001 +00000-0 +38002-4 0  9991
2 41188 047.0006 176.0332 0001748 179.4129 180.6757 14.54860759203677
1 41188U 15081K   19279.77199381 -.00000009  00000-0  36230-4 0  9998
2 41188  47.0005 171.8389 0001800 183.2073 176.8800 14.54861018203801
1 41188U 15081K   19279.90934437 -.00000012 +00000-0 +35468-4 0  9998
2 41188 047.0005 171.1936 0001814 183.7849 176.3021 14.54861041203821
1 41188U 15081K   19280.80212285 -.00000020  00000-0  33721-4 0  9998
2 41188  47.0004 166.9993 0001866 187.5763 172.5093 14.54861287203952
1 41188U 15081K   19281.83225180 -.00000031 +00000-0 +31210-4 0  9993
2 41188 047.0003 162.1597 0001928 191.6102 168.4738 14.54861489204103
1 41188U 15081K   19282.10695288 -.00000032  00000-0  30875-4 0  9991
2 41188  47.0003 160.8691 0001940 192.5606 167.5230 14.54861525204148
1 41188U 15081K   19282.86238058 -.00000032 +00000-0 +30866-4 0  9992
2 41188 047.0002 157.3200 0001992 195.5191 164.5633 14.54861701204255
1 41188U 15081K   19283.13708157 -.00000031  00000-0  31066-4 0  9997
2 41188  47.0001 156.0294 0002003 196.4886 163.5934 14.54861764204294
1 41188U 15081K   19283.89250916 -.00000033 +00000-0 +30709-4 0  9990
2 41188 047.0001 152.4803 0002055 199.3201 160.7605 14.54861926204407
1 41188U 15081K   19284.78528712 -.00000035  00000-0  30260-4 0  9995
2 41188  47.0001 148.2858 0002101 202.8177 157.2614 14.54862114204539
1 41188U 15081K   19284.85396235 -.00000033 +00000-0 +30734-4 0  9990
2 41188 047.0001 147.9632 0002105 203.0578 157.0212 14.54862136204544
